{"version": 0.6, "generator": "Overpass API 0.7.61.5 4133829e", "osm3s": {"timestamp_osm_base": "2023-10-18T10:58:45Z", "copyright": "The data included in this document is from www.openstreetmap.org. The data is made available under ODbL."}, "elements": [{"type": "node", "id": 252111330, "lat": 52.3704414, "lon": 4.9111074, "tags": {"amenity": "pub", "name": "Caf\u00e9 Scharrebier"}}, {"type": "node", "id": 252143918, "lat": 52.371134, "lon": 4.9117046, "tags": {"amenity": "restaurant", "name": "de Kluis"}}, {"type": "node", "id": 264588720, "lat": 52.3665415, "lon": 4.9109737, "tags": {"addr:city": "Amsterdam", "addr:country": "NL", "addr:street": "Plantage Middenlaan", "amenity": "pub", "name": "Cafe Eik en Linde", "wheelchair": "yes"}}, {"type": "node", "id": 304076330, "lat": 52.3689488, "lon": 4.9217468, "tags": {"amenity": "restaurant", "name": "Il Forno", "opening_hours": "Mo-Su 16:30-23:30", "source": "Openstreetbugs ticket WindRider", "wheelchair": "yes"}}, {"type": "node", "id": 430686827, "lat": 52.3662399, "lon": 4.9118164, "tags": {"addr:city": "Amsterdam", "addr:country": "NL", "addr:housenumber": "30", "addr:street": "Plantage Middenlaan", "amenity": "restaurant", "check_date": "2023-07-03", "cuisine": "chinese", "name": "Happy Corner", "website": "https://www.restauranthappycorner.nl/"}}, {"type": "node", "id": 432445895, "lat": 52.3660615, "lon": 4.9116659, "tags": {"addr:city": "Amsterdam", "addr:country": "NL", "addr:street": "Plantage Middenlaan", "amenity": "restaurant", "name": "Sapori Del Mondo"}}, {"type": "node", "id": 440009810, "lat": 52.3666432, "lon": 4.91166, "tags": {"addr:city": "Amsterdam", "addr:housenumber": "37", "addr:postcode": "1018DB", "addr:street": "Plantage Middenlaan", "amenity": "pub", "name": "Cafe Koosje", "phone": "+31 20 320 0817", "source": "BAG", "source:date": "2014-03-24", "website": "https://www.koosjeamsterdam.nl"}}, {"type": "node", "id": 440009812, "lat": 52.3660271, "lon": 4.9116177, "tags": {"amenity": "restaurant", "cuisine": "italian", "name": "Palorma"}}, {"type": "node", "id": 539128135, "lat": 52.3708182, "lon": 4.9117106, "tags": {"amenity": "restaurant", "name": "Eenvistweevis"}}, {"type": "node", "id": 565677299, "lat": 52.3689718, "lon": 4.9216625, "tags": {"amenity": "restaurant", "cuisine": "thai", "name": "Tom Yum Kung", "opening_hours": "Mo-Su 17:00-22:00", "wheelchair": "no"}}, {"type": "node", "id": 632110110, "lat": 52.3654316, "lon": 4.9033085, "tags": {"amenity": "restaurant", "name": "Neva", "website": "http://neva.nl"}}, {"type": "node", "id": 717731166, "lat": 52.3665017, "lon": 4.9193465}, {"type": "node", "id": 717731791, "lat": 52.3664771, "lon": 4.9191682}, {"type": "node", "id": 717742232, "lat": 52.3666915, "lon": 4.9185487}, {"type": "node", "id": 717811738, "lat": 52.3665431, "lon": 4.9192267}, {"type": "node", "id": 717824522, "lat": 52.3665407, "lon": 4.9193824}, {"type": "node", "id": 717827512, "lat": 52.3667815, "lon": 4.9186319}, {"type": "node", "id": 976615026, "lat": 52.3670112, "lon": 4.9120064, "tags": {"addr:city": "Amsterdam", "addr:housenumber": "41", "addr:street": "Plantage Kerklaan", "amenity": "restaurant", "diet:vegan": "yes", "diet:vegetarian": "yes", "email": "info@borrl.kitchen", "name": "De Deli", "old_name": "Amsterdam Borrl Kitchen", "opening_hours": "Mo-Su 10:00-18:00", "phone": "+31 20 354 2669", "website": "https://borrl.kitchen/"}}, {"type": "node", "id": 1055573894, "lat": 52.3715795, "lon": 4.9077158, "tags": {"addr:city": "Amsterdam", "addr:housenumber": "23", "addr:postcode": "1011TJ", "addr:street": "Peperstraat", "amenity": "restaurant", "cuisine": "Dutch_French", "name": "Greetje", "source": "BAG", "source:date": "2014-03-24", "wheelchair": "yes"}}, {"type": "node", "id": 1074370472, "lat": 52.3758693, "lon": 4.9081512, "tags": {"amenity": "restaurant", "description": "restaurant inside OBA, top floor", "internet_access": "wlan", "internet_access:fee": "no", "level": "7", "location": "overground", "name": "Babel", "old_name": "La Place", "opening_hours": "Mo-Su 10:00-22:00", "toilets:wheelchair": "yes", "wheelchair": "yes"}}, {"type": "node", "id": 1083536032, "lat": 52.3678354, "lon": 4.9127949, "tags": {"addr:city": "Amsterdam", "addr:housename": "Plancius", "addr:housenumber": "61C", "addr:postcode": "1018CX", "addr:street": "Plantage Kerklaan", "amenity": "restaurant", "cuisine": "international", "name": "Plancius", "phone": "+31 20 223 6946", "website": "https://www.restaurantplancius.nl/"}}, {"type": "node", "id": 1083536034, "lat": 52.3688499, "lon": 4.9142406, "tags": {"addr:city": "Amsterdam", "addr:housename": "Bloem", "addr:housenumber": "36", "addr:postcode": "1018AD", "addr:street": "Entrepotdok", "amenity": "restaurant", "diet:vegan": "yes", "diet:vegetarian": "only", "name": "Bloem", "opening_hours": "Tu-Sa 12:00-22:00; Su 12:00-17:00", "website": "http://www.bloem36.nl"}}, {"type": "node", "id": 1386079220, "lat": 52.3762931, "lon": 4.9115789, "tags": {"addr:city": "Amsterdam", "addr:housenumber": "4", "addr:postcode": "1019BS", "addr:street": "Dijksgracht", "amenity": "restaurant", "cuisine": "international", "name": "Hannekes Boom", "opening_hours": "Mo-Th,Su 11:00-01:00; Fr-Sa 11:00-03:00", "outdoor_seating": "yes", "phone": "+31 20 419 9820", "reservation": "recommended", "source": "BAG", "source:date": "2014-03-24", "website": "https://hannekesboom.nl/", "wheelchair": "limited"}}, {"type": "node", "id": 1556465283, "lat": 52.3769496, "lon": 4.9214435, "tags": {"amenity": "restaurant", "cuisine": "italian", "name": "Magazzino"}}, {"type": "node", "id": 1724233462, "lat": 52.3714226, "lon": 4.9223304}, {"type": "node", "id": 1724233464, "lat": 52.3714642, "lon": 4.922399}, {"type": "node", "id": 1724233466, "lat": 52.3714835, "lon": 4.9222313}, {"type": "node", "id": 1724233468, "lat": 52.3715251, "lon": 4.9223}, {"type": "node", "id": 1749038791, "lat": 52.3716443, "lon": 4.9074757, "tags": {"addr:city": "Amsterdam", "addr:housenumber": "10-huis", "addr:postcode": "1011TL", "addr:street": "Peperstraat", "amenity": "restaurant", "contact:facebook": "https://www.facebook.com/Gebr.Hartering/", "contact:instagram": "https://www.instagram.com/gebrhartering/", "cuisine": "meat", "name": "Gebr. Hartering", "opening_hours": "Mo-Su 18:00-22:00", "phone": "+31 20 421 0699", "website": "https://www.gebr-hartering.nl", "wheelchair": "no"}}, {"type": "node", "id": 2708539685, "lat": 52.3673515, "lon": 4.9095413, "tags": {"addr:city": "Amsterdam", "addr:housenumber": "10", "addr:postcode": "1018ST", "addr:street": "Plantage Parklaan", "amenity": "pub", "internet_access": "wlan", "internet_access:fee": "no", "name": "Cafe Smit & Voogt", "opening_hours": "Mo-Su 10:00-24:00", "website": "https://www.cafesmitenvoogt.nl"}}, {"type": "node", "id": 2708542899, "lat": 52.3701143, "lon": 4.9121073, "tags": {"addr:city": "Amsterdam", "addr:housenumber": "5", "addr:postcode": "1018AB", "addr:street": "Kadijksplein", "amenity": "restaurant", "cuisine": "indonesian", "diet:vegan": "yes", "diet:vegetarian": "yes", "name": "Cafe Kadijk", "source": "BAG", "source:date": "2014-03-24", "website": "https://www.cafekadijk.nl/"}}, {"type": "node", "id": 2725793281, "lat": 52.3753974, "lon": 4.9028284, "tags": {"addr:city": "Amsterdam", "addr:housenumber": "106A", "addr:postcode": "1011AJ", "addr:street": "Prins Hendrikkade", "amenity": "restaurant", "name": "Geisha", "source": "BAG", "source:date": "2014-02-11", "website": "http://www.restaurantgeisha.nl", "wheelchair": "no"}}, {"type": "node", "id": 2725793336, "lat": 52.3731621, "lon": 4.9034695, "tags": {"addr:city": "Amsterdam", "addr:housenumber": "11", "addr:postcode": "1011BZ", "addr:street": "Oude Waal", "amenity": "restaurant", "name": "hemelse modder", "phone": "+31 20 624 3203", "source": "BAG", "source:date": "2014-02-11", "website": "https://www.hemelsemodder.nl"}}, {"type": "node", "id": 2725794647, "lat": 52.3735954, "lon": 4.9028871, "tags": {"addr:city": "Amsterdam", "addr:housenumber": "27", "addr:postcode": "1011CJ", "addr:street": "Binnen Bantammerstraat", "amenity": "restaurant", "name": "Captein & Co", "opening_hours": "Mo-Fr 16:00-00:00; Sa, Su 12:00-00:00", "phone": "+31 20 627 8804", "source": "BAG", "source:date": "2014-02-11", "website": "https://facebook.com/capteinenco"}}, {"type": "node", "id": 2741065352, "lat": 52.3687268, "lon": 4.9027985, "tags": {"addr:city": "Amsterdam", "addr:housenumber": "146H", "addr:postcode": "1011NS", "addr:street": "Jodenbreestraat", "amenity": "restaurant", "name": "MOAK Pancakes - City Center", "old_name": "Mook Pancakes", "source": "BAG", "source:date": "2014-03-24", "toilets:wheelchair": "no", "website": "https://www.moakpancakes.nl/", "wheelchair": "limited"}}, {"type": "node", "id": 2741065816, "lat": 52.37171, "lon": 4.9076664, "tags": {"addr:city": "Amsterdam", "addr:housenumber": "18", "addr:postcode": "1011TX", "addr:street": "Rapenburg", "alt_name": "Hiding in Plain Sight", "amenity": "bar", "description": "Cocktail bar. HPS stands for \"Hiding in Plain Sight.\"", "email": "info@hpsamsterdam.com", "name": "HPS", "opening_hours": "Mo-Th 18:00-01:00, Fr-Sa 18:00-03:00, Su 18:00-01:00", "payment:cash": "yes", "phone": "+31 6 25293620", "smoking": "outside", "source": "BAG", "source:date": "2014-03-24", "website": "https://hpsamsterdam.com", "wheelchair": "limited"}}, {"type": "node", "id": 2741065837, "lat": 52.3683684, "lon": 4.9026849, "tags": {"addr:city": "Amsterdam", "addr:housenumber": "181", "addr:postcode": "1011PG", "addr:street": "Waterlooplein", "amenity": "restaurant", "name": "Lunchcaf\u00e9 Waterloo", "opening_hours": "Mo-Sa 07:00-20:30; Su 09:00-18:00", "source": "BAG", "source:date": "2014-03-24", "toilets:wheelchair": "no", "website": "https://www.cafewaterloo.nl", "wheelchair": "yes"}}, {"type": "node", "id": 2741066321, "lat": 52.3688372, "lon": 4.905523, "tags": {"addr:city": "Amsterdam", "addr:housenumber": "223D", "addr:postcode": "1011MJ", "addr:street": "Valkenburgerstraat", "amenity": "restaurant", "cuisine": "mediterranean", "diet:vegetarian": "yes", "name": "Olijfje", "opening_hours": "Mo-Su 10:00-23:30", "source": "BAG", "source:date": "2014-03-24", "website": "https://www.restaurantolijfje.nl"}}, {"type": "node", "id": 2741083792, "lat": 52.3668917, "lon": 4.904228, "tags": {"addr:city": "Amsterdam", "addr:housenumber": "8", "addr:postcode": "1011RH", "addr:street": "Jonas Dani\u00ebl Meijerplein", "amenity": "restaurant", "cuisine": "ethiopian;eritrean", "name": "Eetkunst Asmara", "phone": "+31 20 627 1002", "source": "BAG", "source:date": "2014-03-24"}}, {"type": "node", "id": 2741083814, "lat": 52.3700544, "lon": 4.9106101, "tags": {"addr:city": "Amsterdam", "addr:housenumber": "83", "addr:postcode": "1011VJ", "addr:street": "Rapenburgerplein", "amenity": "pub", "name": "De Druif", "source": "BAG", "source:date": "2014-03-24"}}, {"type": "node", "id": 2742862966, "lat": 52.3662119, "lon": 4.9119285, "tags": {"addr:city": "Amsterdam", "addr:housenumber": "30A-H", "addr:postcode": "1018DG", "addr:street": "Plantage Middenlaan", "amenity": "restaurant", "name": "Box Sociaal", "opening_hours": "Mo-Su 09:00-23:00", "phone": "+31 20 280 5578", "source": "BAG", "source:date": "2014-03-24", "website": "https://boxsociaal.com"}}, {"type": "node", "id": 2742997403, "lat": 52.3665072, "lon": 4.9192019}, {"type": "node", "id": 2742997406, "lat": 52.3665088, "lon": 4.9191973}, {"type": "node", "id": 2742997409, "lat": 52.3665099, "lon": 4.9192045}, {"type": "node", "id": 2742997411, "lat": 52.3665104, "lon": 4.9189702}, {"type": "node", "id": 2742997418, "lat": 52.3665124, "lon": 4.9191974}, {"type": "node", "id": 2742997455, "lat": 52.3665306, "lon": 4.9192236}, {"type": "node", "id": 2742997466, "lat": 52.3665331, "lon": 4.9190064}, {"type": "node", "id": 2742997470, "lat": 52.3665331, "lon": 4.9192165}, {"type": "node", "id": 2742997473, "lat": 52.3665334, "lon": 4.9192261}, {"type": "node", "id": 2742997479, "lat": 52.3665356, "lon": 4.9192198}, {"type": "node", "id": 2742997511, "lat": 52.3665445, "lon": 4.9189126}, {"type": "node", "id": 2742997528, "lat": 52.3665491, "lon": 4.9189167}, {"type": "node", "id": 2742997560, "lat": 52.3665567, "lon": 4.9188771}, {"type": "node", "id": 2742997564, "lat": 52.3665612, "lon": 4.9188813}, {"type": "node", "id": 2742997592, "lat": 52.3665696, "lon": 4.9188001}, {"type": "node", "id": 2742997609, "lat": 52.3665779, "lon": 4.91922}, {"type": "node", "id": 2742997624, "lat": 52.3665924, "lon": 4.9192335}, {"type": "node", "id": 2742997632, "lat": 52.3666, "lon": 4.9188131}, {"type": "node", "id": 2742997682, "lat": 52.3666306, "lon": 4.9190678}, {"type": "node", "id": 2742997779, "lat": 52.3667234, "lon": 4.9185782}, {"type": "node", "id": 2742997781, "lat": 52.366725, "lon": 4.9185737}, {"type": "node", "id": 2742997783, "lat": 52.3667253, "lon": 4.9185835}, {"type": "node", "id": 2742997788, "lat": 52.3667278, "lon": 4.9185763}, {"type": "node", "id": 2742997821, "lat": 52.366746, "lon": 4.9186026}, {"type": "node", "id": 2742997825, "lat": 52.3667485, "lon": 4.9185954}, {"type": "node", "id": 2742997829, "lat": 52.3667497, "lon": 4.9186024}, {"type": "node", "id": 2742997830, "lat": 52.3667512, "lon": 4.918598}, {"type": "node", "id": 2743197031, "lat": 52.3681133, "lon": 4.9242862, "tags": {"addr:city": "Amsterdam", "addr:housenumber": "75", "addr:postcode": "1018NC", "addr:street": "Oostenburgergracht", "amenity": "restaurant", "name": "Coulisse", "phone": "+31 20 737 1007", "source": "BAG", "source:date": "2014-03-24", "stars": "1", "website": "https://coulisse-amsterdam.nl/"}}, {"type": "node", "id": 2743481707, "lat": 52.369393, "lon": 4.920537, "tags": {"addr:city": "Amsterdam", "addr:housenumber": "303", "addr:postcode": "1018ZL", "addr:street": "Wittenburgergracht", "amenity": "restaurant", "description": "Restaurant en winkel voor gerookte vis", "name": "Frank's Smoke House", "opening_hours": "Tu-Th 11:00-19:00; Fr,Sa 11:00-22:00; Su 11:00-17:00", "shop": "seafood", "source": "BAG", "source:date": "2014-03-24", "website": "https://www.smokehouse.nl/"}}, {"type": "node", "id": 2743482771, "lat": 52.3708862, "lon": 4.9163574, "tags": {"addr:city": "Amsterdam", "addr:housenumber": "39", "addr:postcode": "1018KK", "addr:street": "Kattenburgerplein", "amenity": "pub", "name": "Caf\u00e9 Daan & Daan", "source": "BAG", "source:date": "2014-03-24", "wheelchair": "yes"}}, {"type": "node", "id": 2743728707, "lat": 52.3757981, "lon": 4.9085513, "tags": {"addr:city": "Amsterdam", "addr:housenumber": "145", "addr:postcode": "1011DL", "addr:street": "Oosterdokskade", "amenity": "restaurant", "brand:wikipedia": "en:Vapiano", "cuisine": "korean", "email": "info@gajabbq.com", "name": "Gaja Korean BBQ & Bar", "opening_hours": "Mo-Su 16:30-22:30 open \"Restaurant and Bar\" || Su-We 12:30-23:00 open \"Bar\" || Th-Sa 12:00-00:00 open \"Bar\"", "source": "BAG", "source:date": "2014-03-24", "website": "https://gajabbq.com"}}, {"type": "node", "id": 3085036459, "lat": 52.3665845, "lon": 4.912559, "tags": {"addr:city": "Amsterdam", "addr:housenumber": "36", "addr:postcode": "1018CZ", "addr:street": "Plantage Kerklaan", "alt_name": "Caf\u00e9-Restaurant de Plantage", "amenity": "restaurant", "cuisine": "fine_dining;local", "diet:vegetarian": "yes", "name": "de Plantage", "opening_hours": "Tu-Fr 09:00-01:00", "toilets:wheelchair": "yes", "vegetarian": "yes", "website": "https://caferestaurantdeplantage.nl", "wheelchair": "yes"}}, {"type": "node", "id": 3306270461, "lat": 52.3655267, "lon": 4.9112086, "tags": {"addr:city": "Amsterdam", "addr:housenumber": "2", "addr:postcode": "1018TA", "addr:street": "Plantage Kerklaan", "amenity": "restaurant", "check_date": "2023-07-03", "cuisine": "italian", "name": "De Pizzabakkers Plantage", "payment:cash": "no", "website": "https://depizzabakkers.nl/plantage", "wheelchair": "no"}}, {"type": "node", "id": 3306275670, "lat": 52.3661818, "lon": 4.9113226, "tags": {"amenity": "restaurant", "cuisine": "italian", "name": "Pizzeria Pasta Villa"}}, {"type": "node", "id": 3915502820, "lat": 52.37295, "lon": 4.9166178, "tags": {"addr:city": "Amsterdam", "addr:housenumber": "5", "addr:postcode": "1018JA", "addr:street": "Kattenburgerstraat", "amenity": "restaurant", "name": "Pension Homeland", "opening_hours": "24/7"}}, {"type": "node", "id": 4453872010, "lat": 52.3659774, "lon": 4.9115971, "tags": {"addr:city": "Amsterdam", "addr:housenumber": "26", "addr:street": "Plantage Kerklaan", "amenity": "restaurant", "cuisine": "japanese", "diet:vegan": "yes", "diet:vegetarian": "yes", "name": "Tempura", "opening_hours": "Tu-Su 17:00-22:30", "phone": "+31 20 428 7132", "website": "https://www.restauranttempura.nl", "wheelchair": "limited"}}, {"type": "node", "id": 4470032578, "lat": 52.375501, "lon": 4.9142739, "tags": {"addr:city": "Amsterdam", "addr:housenumber": "5", "addr:street": "Kattenburgerstraat", "amenity": "restaurant", "loc_ref": "024A", "name": "Scheepskameel", "toilets:wheelchair": "no", "website": "https://www.scheepskameel.nl/", "wheelchair": "yes"}}, {"type": "node", "id": 4506510316, "lat": 52.3755782, "lon": 4.9064706}, {"type": "node", "id": 4506510317, "lat": 52.3755785, "lon": 4.9064735}, {"type": "node", "id": 4506510318, "lat": 52.3755786, "lon": 4.9064679}, {"type": "node", "id": 4506510319, "lat": 52.3755794, "lon": 4.9064759}, {"type": "node", "id": 4506510320, "lat": 52.3755808, "lon": 4.9064777}, {"type": "node", "id": 4506510321, "lat": 52.3757263, "lon": 4.9059647}, {"type": "node", "id": 4506510322, "lat": 52.3757274, "lon": 4.9059624}, {"type": "node", "id": 4506510323, "lat": 52.3757289, "lon": 4.9059609}, {"type": "node", "id": 4506510324, "lat": 52.3757306, "lon": 4.9059605}, {"type": "node", "id": 4506510325, "lat": 52.3757323, "lon": 4.9059613}, {"type": "node", "id": 4506510326, "lat": 52.3757671, "lon": 4.9066237}, {"type": "node", "id": 4506510327, "lat": 52.3757688, "lon": 4.9066244}, {"type": "node", "id": 4506510328, "lat": 52.3757706, "lon": 4.906624}, {"type": "node", "id": 4506510329, "lat": 52.3757721, "lon": 4.9066226}, {"type": "node", "id": 4506510330, "lat": 52.3757731, "lon": 4.9066203}, {"type": "node", "id": 4506510331, "lat": 52.375779, "lon": 4.9066004}, {"type": "node", "id": 4506510332, "lat": 52.3758373, "lon": 4.9064018}, {"type": "node", "id": 4506510333, "lat": 52.3758567, "lon": 4.9063356}, {"type": "node", "id": 4506510334, "lat": 52.375915, "lon": 4.906137}, {"type": "node", "id": 4506510335, "lat": 52.3759187, "lon": 4.9061073}, {"type": "node", "id": 4506510336, "lat": 52.3759201, "lon": 4.906109}, {"type": "node", "id": 4506510337, "lat": 52.3759208, "lon": 4.9061171}, {"type": "node", "id": 4506510338, "lat": 52.375921, "lon": 4.9061115}, {"type": "node", "id": 4506510339, "lat": 52.3759213, "lon": 4.9061143}, {"type": "node", "id": 4548127237, "lat": 52.3775713, "lon": 4.9071538, "tags": {"amenity": "restaurant", "diet:gluten_free": "yes", "diet:vegan": "yes", "diet:vegetarian": "yes", "name": "Choux", "toilets:wheelchair": "no", "website": "https://choux.nl/", "wheelchair": "yes"}}, {"type": "node", "id": 4572310445, "lat": 52.3764045, "lon": 4.9132023, "tags": {"amenity": "restaurant", "name": "Mediamatic Eten", "website": "http://eten.mediamatic.nl"}}, {"type": "node", "id": 4574227869, "lat": 52.376322, "lon": 4.9060727, "tags": {"addr:city": "Amsterdam", "addr:housenumber": "5", "addr:street": "Oosterdokskade", "amenity": "restaurant", "name": "&moshik", "old_name": "&Samhoud Places", "website": "https://www.samhoudplaces.com/", "wikidata": "Q4540372", "wikipedia": "nl:&moshik"}}, {"type": "node", "id": 4997831354, "lat": 52.3673574, "lon": 4.9028429, "tags": {"amenity": "restaurant", "name": "San Giovanni", "toilets:wheelchair": "no", "wheelchair": "yes"}}, {"type": "node", "id": 5211679121, "lat": 52.3714555, "lon": 4.9145436, "tags": {"addr:city": "Amsterdam", "addr:housename": "Het Scheepvaartmuseum", "addr:postcode": "1018KK", "addr:street": "Kattenburgerplein", "amenity": "restaurant", "name": "Restaurant Stalpaert", "outdoor_seating": "no"}}, {"type": "node", "id": 5551547676, "lat": 52.375993, "lon": 4.9026438, "tags": {"amenity": "restaurant", "email": "info@steakhouselagouch.nl", "name": "La Gouch", "phone": "+31 20 620 5676", "website": "http://steakhouselagouch.nl/", "wheelchair": "no"}}, {"type": "node", "id": 5909685709, "lat": 52.3742679, "lon": 4.9123687, "tags": {"amenity": "restaurant", "changing_table": "yes", "name": "DAK restaurant Nemo", "toilets": "yes", "toilets:wheelchair": "yes", "wheelchair": "limited"}}, {"type": "node", "id": 6003228330, "lat": 52.3758617, "lon": 4.9076499, "tags": {"addr:city": "Amsterdam", "addr:housenumber": "135", "addr:postcode": "1011DL", "addr:street": "Oosterdokskade", "amenity": "restaurant", "cuisine": "japanese", "name": "Mojo"}}, {"type": "node", "id": 7775051521, "lat": 52.3703276, "lon": 4.9108152, "tags": {"addr:city": "Amsterdam", "addr:housenumber": "6", "addr:postcode": "1011VB", "addr:street": "Rapenburgerplein", "amenity": "restaurant", "cuisine": "ethiopian", "diet:vegetarian": "yes", "name": "Kilimanjaro"}}, {"type": "node", "id": 7775080631, "lat": 52.3702271, "lon": 4.9122719, "tags": {"addr:city": "Amsterdam", "addr:housenumber": "9", "addr:postcode": "1018AC", "addr:street": "Kadijksplein", "amenity": "restaurant", "cuisine": "italian", "name": "A Tavola", "opening_hours": "Tu-Sa 12:00-20:00", "phone": "+31 20 625 4994", "website": "https://www.atavolarestaurant.nl"}}, {"type": "node", "id": 7775116996, "lat": 52.3704071, "lon": 4.9110133, "tags": {"addr:city": "Amsterdam", "addr:housenumber": "2", "addr:postcode": "1011VA", "addr:street": "Rapenburgerplein", "amenity": "restaurant", "cuisine": "italian", "name": "Verena", "opening_hours": "Mo-Su 15:00-23:00", "phone": "+31 20 786 9281", "website": "https://www.restaurantverena.nl/"}}, {"type": "node", "id": 7879970529, "lat": 52.3745106, "lon": 4.9142241, "tags": {"amenity": "restaurant", "name": "Kanteen25"}}, {"type": "node", "id": 8734925796, "lat": 52.3692464, "lon": 4.920886, "tags": {"addr:city": "Amsterdam", "addr:housenumber": "3", "addr:postcode": "1018NA", "addr:street": "Oostenburgergracht", "amenity": "pub", "diet:vegetarian": "yes", "food": "yes", "name": "Caf\u00e9 de Oude Werf", "old_name": "Eetcafe de Werf", "opening_hours": "Mo-Su 12:00-20:00", "outdoor_seating": "yes", "website": "https://www.cafedeoudewerf.nl/"}}, {"type": "node", "id": 8815796628, "lat": 52.3700432, "lon": 4.9186289, "tags": {"addr:city": "Amsterdam", "addr:housenumber": "143", "addr:postcode": "1018MX", "addr:street": "Wittenburgergracht", "amenity": "restaurant", "cuisine": "sushi", "diet:vegan": "yes", "diet:vegetarian": "yes", "name": "Vegan Sushi Bar", "opening_hours": "Fr,Sa 12:30-23:00; Su 12:30-22:30; We,Th 17:00-22:00"}}, {"type": "node", "id": 9176789717, "lat": 52.3696319, "lon": 4.9119695, "tags": {"addr:city": "Amsterdam", "addr:housenumber": "7-8", "addr:postcode": "1018AD", "addr:street": "Entrepotdok", "amenity": "restaurant", "name": "Restaurant Entrepot", "website": "https://restaurantentrepot.nl"}}, {"type": "node", "id": 10300898532, "lat": 52.3650398, "lon": 4.9182201, "tags": {"amenity": "restaurant", "name": "De Serre"}}, {"type": "node", "id": 11021730184, "lat": 52.3657184, "lon": 4.9113295, "tags": {"addr:city": "Amsterdam", "addr:housenumber": "12", "addr:postcode": "1018TA", "addr:street": "Plantage Kerklaan", "amenity": "restaurant", "cuisine": "pizza", "name": "De Pizzabakkers To Go Bar", "opening_hours": "Mo-Wo 16:00-22:00, Th-Su 12:00-22:00", "phone": "+31 20 303 9244", "website": "https://www.depizzabakkers.nl/vestigingen/amsterdam-plantage/"}}, {"type": "node", "id": 11160401818, "lat": 52.3768017, "lon": 4.9051791, "tags": {"addr:city": "Amsterdam", "addr:postcode": "1011 DK", "addr:street": "Oosterdoksstraat 4, Level 11", "amenity": "bar", "contact:email": "amscs.info@hilton.com", "contact:facebook": "https://www.facebook.com/LuminAir.Bar/", "contact:instagram": "https://www.instagram.com/luminair.amsterdam/", "contact:linkedin": "https://nl.linkedin.com/company/luminair-amsterdam", "contact:phone": "+31 20 530 0800", "contact:website": "https://www.luminairamsterdam.com/", "name": "LuminAir"}}, {"type": "way", "id": 57863998, "nodes": [2742997682, 2742997609, 2742997624, 717824522, 717731166, 717811738, 2742997479, 2742997473, 2742997455, 2742997470, 2742997418, 2742997409, 2742997403, 2742997406, 717731791, 2742997466, 2742997411, 2742997511, 2742997528, 2742997564, 2742997560, 2742997592, 2742997632, 717742232, 2742997779, 2742997781, 2742997788, 2742997783, 2742997821, 2742997825, 2742997830, 2742997829, 717827512, 2742997682], "tags": {"access": "customers", "amenity": "restaurant", "building": "yes", "name": "De Waterkant", "ref:bag": "0363100012180609", "source": "BAG", "source:date": "2014-03-24", "start_date": "1005", "wheelchair": "yes"}}, {"type": "way", "id": 160375977, "nodes": [1724233466, 1724233468, 1724233464, 1724233462, 1724233466], "tags": {"addr:housenumber": "133", "addr:street": "Tweede Wittenburgerdwarsstraat", "amenity": "restaurant", "name": "'t Markerhuisje", "website": "http://markerhuisje.com/"}}, {"type": "way", "id": 454006714, "nodes": [4506510321, 4506510322, 4506510323, 4506510324, 4506510325, 4506510335, 4506510336, 4506510338, 4506510339, 4506510337, 4506510334, 4506510333, 4506510332, 4506510331, 4506510330, 4506510329, 4506510328, 4506510327, 4506510326, 4506510320, 4506510319, 4506510317, 4506510316, 4506510318, 4506510321], "tags": {"addr:city": "Amsterdam", "addr:housenumber": "8", "addr:postcode": "1011AE", "addr:street": "Oosterdokskade", "amenity": "restaurant", "building": "houseboat", "building:levels": "3", "height": "15", "layer": "1", "name": "Sea Palace Chinese Restaurant", "name:zh": "\u6d77\u4e0a\u7687\u5bae", "opening_hours": "PH,Mo-Su 12:00-22:00", "ref:bag": "363020001025735", "roof:colour": "#4C8162", "roof:height": "4", "roof:material": "tiles", "roof:shape": "hipped", "source": "BAG", "source:date": "2016-11-17", "website": "https://seapalace.nl"}}]}